[{"OBJECT_NAME":"STARLINK-35220","OBJECT_ID":"2025-211K","EPOCH":"2026-03-09T16:48:09.392544","MEAN_MOTION":15.05653544,"ECCENTRICITY":9.4e-5,"INCLINATION":97.6021,"RA_OF_ASC_NODE":114.0797,"ARG_OF_PERICENTER":113.0996,"MEAN_ANOMALY":247.033,"EPHEMERIS_TYPE":0,"CLASSIFICATION_TYPE":"U","NORAD_CAT_ID":65661,"ELEMENT_SET_NO":999,"REV_AT_EPOCH":2704,"BSTAR":0.00018175142,"MEAN_MOTION_DOT":2.563e-5,"MEAN_MOTION_DDOT":0},{"OBJECT_NAME":"SL-16 DEB","OBJECT_ID":"1992-093CH","EPOCH":"2026-03-09T20:51:36.974880","MEAN_MOTION":14.88689084,"ECCENTRICITY":0.0074931,"INCLINATION":70.8861,"RA_OF_ASC_NODE":315.1013,"ARG_OF_PERICENTER":150.6914,"MEAN_ANOMALY":290.361,"EPHEMERIS_TYPE":0,"CLASSIFICATION_TYPE":"U","NORAD_CAT_ID":22392,"ELEMENT_SET_NO":999,"REV_AT_EPOCH":74900,"BSTAR":0.00054238016,"MEAN_MOTION_DOT":5.266e-5,"MEAN_MOTION_DDOT":0}]
